[{"OBJECT_NAME":"SITRO-AIS 8 (ANOKHIN)","OBJECT_ID":"2023-091AD","EPOCH":"2026-03-09T23:44:40.058592","MEAN_MOTION":15.29359179,"ECCENTRICITY":0.0012509,"INCLINATION":97.5169,"RA_OF_ASC_NODE":133.2823,"ARG_OF_PERICENTER":92.0171,"MEAN_ANOMALY":268.2501,"EPHEMERIS_TYPE":0,"CLASSIFICATION_TYPE":"U","NORAD_CAT_ID":57193,"ELEMENT_SET_NO":999,"REV_AT_EPOCH":14927,"BSTAR":0.00064982524,"MEAN_MOTION_DOT":0.00018494,"MEAN_MOTION_DDOT":0},{"OBJECT_NAME":"STARLINK-36091","OBJECT_ID":"2025-281A","EPOCH":"2026-03-09T04:18:42.042528","MEAN_MOTION":15.27588939,"ECCENTRICITY":0.00021245,"INCLINATION":43.0012,"RA_OF_ASC_NODE":346.6908,"ARG_OF_PERICENTER":234.1897,"MEAN_ANOMALY":125.8758,"EPHEMERIS_TYPE":0,"CLASSIFICATION_TYPE":"U","NORAD_CAT_ID":66848,"ELEMENT_SET_NO":999,"REV_AT_EPOCH":1478,"BSTAR":0.00099324701,"MEAN_MOTION_DOT":0.00027179,"MEAN_MOTION_DDOT":0}]
